NORAD_CAT_ID,OBJECT_NAME,OBJECT_TYPE,EPOCH,MEAN_MOTION,ECCENTRICITY,INCLINATION,RA_OF_ASC_NODE,ARG_OF_PERICENTER,MEAN_ANOMALY,BSTAR,MEAN_MOTION_DOT,MEAN_MOTION_DDOT,TLE_LINE0,TLE_LINE1,TLE_LINE2,SEMIMAJOR_AXIS,PERIOD,APOGEE,PERIGEE,DECAYED
55319.0,STARLINK-5196,PAYLOAD,2023-09-14 18:10:58,14.98323512,0.0003183,69.9983,131.1118,274.6789,85.4007,-5.9631e-05,-8.04e-06,0.0,0 STARLINK-5196,1 55319U 23010BC  23257.75762726 -.00000804  00000-0 -59631-4 0  9992,2 55319  69.9983 131.1118 0003183 274.6789  85.4007 14.98323512 37601,6950.213,96.107,574.29,569.866,0.0
55319.0,STARLINK-5196,PAYLOAD,2023-09-14 21:23:15,14.98314275,0.0003168,69.9988,130.7749,279.5552,80.5249,-0.00013912,-1.752e-05,0.0,0 STARLINK-5196,1 55319U 23010BC  23257.89115596 -.00001752  00000-0 -13912-3 0  9998,2 55319  69.9988 130.7749 0003168 279.5552  80.5249 14.98314275 38810,6950.242,96.108,574.308,569.905,0.0
55319.0,STARLINK-5196,PAYLOAD,2023-09-15 02:11:39,14.98324626,0.0002699,69.9987,130.2703,285.9823,74.1039,-1.665e-05,-2.92e-06,0.0,0 STARLINK-5196,1 55319U 23010BC  23258.09142892 -.00000292  00000-0 -16650-4 0  9991,2 55319  69.9987 130.2703 0002699 285.9823  74.1039 14.98324626 38844,6950.21,96.107,573.95,570.199,0.0
55319.0,STARLINK-5196,PAYLOAD,2023-09-15 18:12:59,14.98331395,0.0002989,69.9987,128.5872,270.1554,89.9262,3.9901e-05,3.83e-06,0.0,0 STARLINK-5196,1 55319U 23010BC  23258.75901999  .00000383  00000-0  39901-4 0  9998,2 55319  69.9987 128.5872 0002989 270.1554  89.9262 14.98331395 37752,6950.189,96.107,574.131,569.976,0.0
55319.0,STARLINK-5196,PAYLOAD,2023-09-16 02:13:39,14.98338127,0.000305,69.9982,127.7451,268.564,91.517,5.1046e-05,5.16e-06,0.0,0 STARLINK-5196,1 55319U 23010BC  23259.09281398  .00000516  00000-0  51046-4 0  9992,2 55319  69.9982 127.7451 0003050 268.5640  91.5170 14.98338127 37801,6950.168,96.106,574.153,569.913,0.0
55319.0,STARLINK-5196,PAYLOAD,2023-09-16 18:15:00,14.98324881,0.0002785,69.9994,126.0635,265.1361,94.948,9.4071e-05,1.029e-05,0.0,0 STARLINK-5196,1 55319U 23010BC  23259.76042089  .00001029  00000-0  94071-4 0  9993,2 55319  69.9994 126.0635 0002785 265.1361  94.9480 14.98324881 37901,6950.209,96.107,574.009,570.138,0.0
55319.0,STARLINK-5196,PAYLOAD,2023-09-17 00:39:32,14.98320542,0.0003092,69.9988,125.3883,273.6552,86.4254,9.0906e-05,9.92e-06,0.0,0 STARLINK-5196,1 55319U 23010BC  23260.02746502  .00000992  00000-0  90906-4 0  9996,2 55319  69.9988 125.3883 0003092 273.6552  86.4254 14.98320542 39131,6950.222,96.108,574.236,569.938,0.0
55319.0,STARLINK-5196,PAYLOAD,2023-09-17 18:17:01,14.98331321,0.0002935,69.9986,123.5365,266.1624,93.9199,-6.27e-05,-8.41e-06,0.0,0 STARLINK-5196,1 55319U 23010BC  23260.76182234 -.00000841  00000-0 -62700-4 0  9999,2 55319  69.9986 123.5365 0002935 266.1624  93.9199 14.98331321 38054,6950.189,96.107,574.094,570.014,0.0
55319.0,STARLINK-5196,PAYLOAD,2023-09-18 00:41:33,14.98332409,0.0002961,69.9987,122.8633,269.6957,90.3863,-4.0489e-05,-5.76e-06,0.0,0 STARLINK-5196,1 55319U 23010BC  23261.02886101 -.00000576  00000-0 -40489-4 0  9998,2 55319  69.9987 122.8633 0002961 269.6957  90.3863 14.98332409 39284,6950.185,96.107,574.108,569.992,0.0
55319.0,STARLINK-5196,PAYLOAD,2023-09-18 21:31:18,14.98330931,0.0003032,69.9987,120.6758,270.0754,90.0057,5.0117e-05,5.05e-06,0.0,0 STARLINK-5196,1 55319U 23010BC  23261.89673870  .00000505  00000-0  50117-4 0  9999,2 55319  69.9987 120.6758 0003032 270.0754  90.0057 14.98330931 39414,6950.19,96.107,574.162,569.948,0.0
55319.0,STARLINK-5196,PAYLOAD,2023-09-19 00:43:34,14.98333536,0.0002972,69.9987,120.3388,269.9192,90.1626,8.2979e-05,8.97e-06,0.0,0 STARLINK-5196,1 55319U 23010BC  23262.03025593  .00000897  00000-0  82979-4 0  9994,2 55319  69.9987 120.3388 0002972 269.9192  90.1626 14.98333536 38242,6950.182,96.107,574.113,569.981,0.0
55319.0,STARLINK-5196,PAYLOAD,2023-09-20 00:45:34,14.98336687,0.0002893,69.9991,117.8142,269.5518,90.531,8.5319e-05,9.25e-06,0.0,0 STARLINK-5196,1 55319U 23010BC  23263.03165127  .00000925  00000-0  85319-4 0  9996,2 55319  69.9991 117.8142 0002893 269.5518  90.5310 14.98336687 38396,6950.172,96.107,574.048,570.027,0.0
55319.0,STARLINK-5196,PAYLOAD,2023-09-20 13:34:40,14.98319111,0.000246,70.0018,116.4713,236.0948,123.9977,3.5722e-05,3.33e-06,0.0,0 STARLINK-5196,1 55319U 23010BC  23263.56574270  .00000333  00000-0  35722-4 0  9993,2 55319  70.0018 116.4713 0002460 236.0948 123.9977 14.98319111 39668,6950.227,96.108,573.801,570.382,0.0
55319.0,STARLINK-5196,PAYLOAD,2023-09-20 18:23:04,14.98319975,0.0002516,70.0014,115.9664,232.244,127.8491,-5.2046e-05,-7.14e-06,0.0,0 STARLINK-5196,1 55319U 23010BC  23263.76602596 -.00000714  00000-0 -52046-4 0  9991,2 55319  70.0014 115.9664 0002516 232.2440 127.8491 14.98319975 38504,6950.224,96.108,573.838,570.34,0.0
55319.0,STARLINK-5196,PAYLOAD,2023-09-20 21:35:21,14.9831495,0.0002615,70.0006,115.6278,250.1752,109.9125,-0.00010798,-1.381e-05,0.0,0 STARLINK-5196,1 55319U 23010BC  23263.89955125 -.00001381  00000-0 -10798-3 0  9992,2 55319  70.0006 115.6278 0002615 250.1752 109.9125 14.98314950 39715,6950.239,96.108,573.922,570.287,0.0
55319.0,STARLINK-5196,PAYLOAD,2023-09-20 23:11:29,14.98314136,0.0002543,70.0006,115.4595,241.609,118.4813,-0.0001149,-1.463e-05,0.0,0 STARLINK-5196,1 55319U 23010BC  23263.96631238 -.00001463  00000-0 -11490-3 0  9997,2 55319  70.0006 115.4595 0002543 241.6090 118.4813 14.98314136 38539,6950.242,96.108,573.874,570.34,0.0
55319.0,STARLINK-5196,PAYLOAD,2023-09-21 15:12:49,14.98324899,0.0002785,70.0008,113.776,267.9976,92.0864,-6.616e-05,-8.82e-06,0.0,0 STARLINK-5196,1 55319U 23010BC  23264.63390761 -.00000882  00000-0 -66160-4 0  9994,2 55319  70.0008 113.7760 0002785 267.9976  92.0864 14.98324899 38639,6950.209,96.107,574.009,570.138,0.0
55319.0,STARLINK-5196,PAYLOAD,2023-09-21 21:37:21,14.98327271,0.0003095,69.9987,113.1,273.8623,86.2182,-6.558e-05,-8.75e-06,0.0,0 STARLINK-5196,1 55319U 23010BC  23264.90094677 -.00000875  00000-0 -65580-4 0  9998,2 55319  69.9987 113.1000 0003095 273.8623  86.2182 14.98327271 39864,6950.201,96.107,574.217,569.915,0.0
55319.0,STARLINK-5196,PAYLOAD,2023-09-22 13:38:42,14.98315621,0.0002944,69.9991,111.4174,268.6847,91.3975,7.0597e-05,7.49e-06,0.0,0 STARLINK-5196,1 55319U 23010BC  23265.56855299  .00000749  00000-0  70597-4 0  9998,2 55319  69.9991 111.4174 0002944 268.6847  91.3975 14.98315621 39968,6950.237,96.108,574.149,570.056,0.0
55319.0,STARLINK-5196,PAYLOAD,2023-09-22 18:27:07,14.98319138,0.000276,69.9998,110.9132,263.4625,96.622,8.1271e-05,8.77e-06,0.0,0 STARLINK-5196,1 55319U 23010BC  23265.76883193  .00000877  00000-0  81271-4 0  9997,2 55319  69.9998 110.9132 0002760 263.4625  96.6220 14.98319138 38806,6950.226,96.108,574.01,570.173,0.0
55319.0,STARLINK-5196,PAYLOAD,2023-09-22 21:39:23,14.98331856,0.0002901,69.9995,110.5761,267.9046,92.178,-0.00012354,-1.567e-05,0.0,0 STARLINK-5196,1 55319U 23010BC  23265.90234994 -.00001567  00000-0 -12354-3 0  9996,2 55319  69.9995 110.5761 0002901 267.9046  92.1780 14.98331856 40019,6950.187,96.107,574.068,570.036,0.0
55319.0,STARLINK-5196,PAYLOAD,2023-09-23 13:40:43,14.98332639,0.0003086,69.9989,108.8922,271.8121,88.2684,8.4076e-05,9.1e-06,0.0,0 STARLINK-5196,1 55319U 23010BC  23266.56994637  .00000910  00000-0  84076-4 0  9996,2 55319  69.9989 108.8922 0003086 271.8121  88.2684 14.98332639 40114,6950.185,96.107,574.195,569.905,0.0
55319.0,STARLINK-5196,PAYLOAD,2023-09-23 18:29:07,14.98333085,0.0003096,69.999,108.3871,271.5695,88.5109,8.4613e-05,9.17e-06,0.0,0 STARLINK-5196,1 55319U 23010BC  23266.77022572  .00000917  00000-0  84613-4 0  9993,2 55319  69.9990 108.3871 0003096 271.5695  88.5109 14.98333085 38958,6950.183,96.107,574.2,569.897,0.0
55319.0,STARLINK-5196,PAYLOAD,2023-09-24 13:42:44,14.98331221,0.0003074,69.9991,106.3673,273.5542,86.5265,2.9076e-05,2.54e-06,0.0,0 STARLINK-5196,1 55319U 23010BC  23267.57134690  .00000254  00000-0  29076-4 0  9993,2 55319  69.9991 106.3673 0003074 273.5542  86.5265 14.98331221 40264,6950.189,96.107,574.191,569.918,0.0
55319.0,STARLINK-5196,PAYLOAD,2023-09-24 18:31:08,14.98333268,0.0003115,69.9991,105.8625,273.8716,86.2087,4.5674e-05,4.52e-06,0.0,0 STARLINK-5196,1 55319U 23010BC  23267.77162476  .00000452  00000-0  45674-4 0  9990,2 55319  69.9991 105.8625 0003115 273.8716  86.2087 14.98333268 39100,6950.183,96.107,574.213,569.883,0.0
55319.0,STARLINK-5196,PAYLOAD,2023-09-24 21:43:24,14.98334453,0.0003107,69.999,105.5258,273.8751,86.2053,5.6617e-05,5.83e-06,0.0,0 STARLINK-5196,1 55319U 23010BC  23267.90514326  .00000583  00000-0  56617-4 0  9994,2 55319  69.9990 105.5258 0003107 273.8751  86.2053 14.98334453 40313,6950.179,96.107,574.204,569.885,0.0
55319.0,STARLINK-5196,PAYLOAD,2023-09-25 13:44:44,14.98338474,0.0002955,69.9994,103.8422,273.2252,86.8569,-2.3175e-06,-1.21e-06,0.0,0 STARLINK-5196,1 55319U 23010BC  23268.57273955 -.00000121  00000-0 -23175-5 0  9992,2 55319  69.9994 103.8422 0002955 273.2252  86.8569 14.98338474 40417,6950.167,96.106,574.085,569.978,0.0
55319.0,STARLINK-5196,PAYLOAD,2023-09-25 20:09:16,14.98338945,0.000296,69.9993,103.1686,273.2922,86.7898,4.3126e-06,-4.2e-07,0.0,0 STARLINK-5196,1 55319U 23010BC  23268.83977748 -.00000042  00000-0  43126-5 0  9991,2 55319  69.9993 103.1686 0002960 273.2922  86.7898 14.98338945 39269,6950.165,96.106,574.087,569.973,0.0
55319.0,STARLINK-5196,PAYLOAD,2023-09-25 21:45:24,14.98339234,0.0002953,69.9993,103.0003,273.2907,86.7914,7.7249e-06,-1e-08,0.0,0 STARLINK-5196,1 55319U 23010BC  23268.90653679 -.00000001  00000-0  77249-5 0  9991,2 55319  69.9993 103.0003 0002953 273.2907  86.7914 14.98339234 40461,6950.164,96.106,574.082,569.977,0.0
55319.0,STARLINK-5196,PAYLOAD,2023-09-26 13:46:45,14.98329119,0.0002777,69.9995,101.3171,268.3811,91.703,-5.4266e-05,-7.4e-06,0.0,0 STARLINK-5196,1 55319U 23010BC  23269.57414221 -.00000740  00000-0 -54266-4 0  9997,2 55319  69.9995 101.3171 0002777 268.3811  91.7030 14.98329119 40560,6950.196,96.107,573.991,570.131,0.0
